CCSDS_OMM_VERS = 2.0
CREATION_DATE  = 
ORIGINATOR     = 

OBJECT_NAME    = STARLINK-36515
OBJECT_ID      = 2026-005AC
CENTER_NAME    = EARTH
REF_FRAME      = TEME
TIME_SYSTEM    = UTC
MEAN_ELEMENT_THEORY = SGP/SGP4

EPOCH          = 2026-02-08T01:58:26.629824
MEAN_MOTION    = 15.50271100
ECCENTRICITY   = .00017393
INCLINATION    = 43.0000
RA_OF_ASC_NODE = 47.3312
ARG_OF_PERICENTER = 203.8230
MEAN_ANOMALY   = 156.2550

EPHEMERIS_TYPE = 0
CLASSIFICATION_TYPE = U
NORAD_CAT_ID   = 67430
ELEMENT_SET_NO = 999
REV_AT_EPOCH   = 413
BSTAR          = -.3135777E-2
MEAN_MOTION_DOT = -.178221E-2
MEAN_MOTION_DDOT = 0

CCSDS_OMM_VERS = 2.0
CREATION_DATE  = 
ORIGINATOR     = 

OBJECT_NAME    = STARLINK-36443
OBJECT_ID      = 2026-005AD
CENTER_NAME    = EARTH
REF_FRAME      = TEME
TIME_SYSTEM    = UTC
MEAN_ELEMENT_THEORY = SGP/SGP4

EPOCH          = 2026-02-08T01:56:53.837952
MEAN_MOTION    = 15.50574736
ECCENTRICITY   = .00013531
INCLINATION    = 43.0002
RA_OF_ASC_NODE = 47.3211
ARG_OF_PERICENTER = 264.5429
MEAN_ANOMALY   = 95.5277

EPHEMERIS_TYPE = 0
CLASSIFICATION_TYPE = U
NORAD_CAT_ID   = 67431
ELEMENT_SET_NO = 999
REV_AT_EPOCH   = 414
BSTAR          = .7801324E-5
MEAN_MOTION_DOT = .116E-5
MEAN_MOTION_DDOT = 0

CCSDS_OMM_VERS = 2.0
CREATION_DATE  = 
ORIGINATOR     = 

OBJECT_NAME    = STARLINK-36460
OBJECT_ID      = 2026-005AE
CENTER_NAME    = EARTH
REF_FRAME      = TEME
TIME_SYSTEM    = UTC
MEAN_ELEMENT_THEORY = SGP/SGP4

EPOCH          = 2026-02-08T01:56:24.384192
MEAN_MOTION    = 15.50585149
ECCENTRICITY   = .00013999
INCLINATION    = 43.0002
RA_OF_ASC_NODE = 47.3190
ARG_OF_PERICENTER = 305.3668
MEAN_ANOMALY   = 54.7061

EPHEMERIS_TYPE = 0
CLASSIFICATION_TYPE = U
NORAD_CAT_ID   = 67432
ELEMENT_SET_NO = 999
REV_AT_EPOCH   = 413
BSTAR          = .18644631E-2
MEAN_MOTION_DOT = .11062E-2
MEAN_MOTION_DDOT = 0

CCSDS_OMM_VERS = 2.0
CREATION_DATE  = 
ORIGINATOR     = 

OBJECT_NAME    = YAOGAN-50 01
OBJECT_ID      = 2026-006A
CENTER_NAME    = EARTH
REF_FRAME      = TEME
TIME_SYSTEM    = UTC
MEAN_ELEMENT_THEORY = SGP/SGP4

EPOCH          = 2026-02-08T14:26:41.463456
MEAN_MOTION    = 13.83242097
ECCENTRICITY   = .00007416
INCLINATION    = 142.0321
RA_OF_ASC_NODE = 314.3796
ARG_OF_PERICENTER = 262.6224
MEAN_ANOMALY   = 97.4411

EPHEMERIS_TYPE = 0
CLASSIFICATION_TYPE = U
NORAD_CAT_ID   = 67433
ELEMENT_SET_NO = 999
REV_AT_EPOCH   = 362
BSTAR          = .15886481E-3
MEAN_MOTION_DOT = .364E-5
MEAN_MOTION_DDOT = 0

CCSDS_OMM_VERS = 2.0
CREATION_DATE  = 
ORIGINATOR     = 

OBJECT_NAME    = CZ-6A R/B
OBJECT_ID      = 2026-006B
CENTER_NAME    = EARTH
REF_FRAME      = TEME
TIME_SYSTEM    = UTC
MEAN_ELEMENT_THEORY = SGP/SGP4

EPOCH          = 2026-02-08T12:43:54.307488
MEAN_MOTION    = 14.62313773
ECCENTRICITY   = .02036021
INCLINATION    = 142.0436
RA_OF_ASC_NODE = 330.2931
ARG_OF_PERICENTER = 271.9538
MEAN_ANOMALY   = 85.7904

EPHEMERIS_TYPE = 0
CLASSIFICATION_TYPE = U
NORAD_CAT_ID   = 67434
ELEMENT_SET_NO = 999
REV_AT_EPOCH   = 380
BSTAR          = .23298227E-3
MEAN_MOTION_DOT = .1936E-4
MEAN_MOTION_DDOT = 0

CCSDS_OMM_VERS = 2.0
CREATION_DATE  = 
ORIGINATOR     = 

OBJECT_NAME    = HULIANWANG DIGUI-137
OBJECT_ID      = 2026-007A
CENTER_NAME    = EARTH
REF_FRAME      = TEME
TIME_SYSTEM    = UTC
MEAN_ELEMENT_THEORY = SGP/SGP4

EPOCH          = 2026-02-08T13:40:39.235584
MEAN_MOTION    = 13.73645514
ECCENTRICITY   = .00021015
INCLINATION    = 50.0204
RA_OF_ASC_NODE = 191.9611
ARG_OF_PERICENTER = 181.7630
MEAN_ANOMALY   = 178.3255

EPHEMERIS_TYPE = 0
CLASSIFICATION_TYPE = U
NORAD_CAT_ID   = 67435
ELEMENT_SET_NO = 999
REV_AT_EPOCH   = 360
BSTAR          = .15900678E-3
MEAN_MOTION_DOT = .9E-7
MEAN_MOTION_DDOT = 0

CCSDS_OMM_VERS = 2.0
CREATION_DATE  = 
ORIGINATOR     = 

OBJECT_NAME    = HULIANWANG DIGUI-138
OBJECT_ID      = 2026-007B
CENTER_NAME    = EARTH
REF_FRAME      = TEME
TIME_SYSTEM    = UTC
MEAN_ELEMENT_THEORY = SGP/SGP4

EPOCH          = 2026-02-08T10:19:58.590336
MEAN_MOTION    = 13.73095736
ECCENTRICITY   = .00004595
INCLINATION    = 50.0050
RA_OF_ASC_NODE = 192.5440
ARG_OF_PERICENTER = 51.4120
MEAN_ANOMALY   = 308.6812

EPHEMERIS_TYPE = 0
CLASSIFICATION_TYPE = U
NORAD_CAT_ID   = 67436
ELEMENT_SET_NO = 999
REV_AT_EPOCH   = 358
BSTAR          = .16168242E-3
MEAN_MOTION_DOT = .1E-6
MEAN_MOTION_DDOT = 0

CCSDS_OMM_VERS = 2.0
CREATION_DATE  = 
ORIGINATOR     = 

OBJECT_NAME    = HULIANWANG DIGUI-139
OBJECT_ID      = 2026-007C
CENTER_NAME    = EARTH
REF_FRAME      = TEME
TIME_SYSTEM    = UTC
MEAN_ELEMENT_THEORY = SGP/SGP4

EPOCH          = 2026-02-08T11:59:58.017984
MEAN_MOTION    = 13.73343805
ECCENTRICITY   = .00028312
INCLINATION    = 50.0759
RA_OF_ASC_NODE = 192.2917
ARG_OF_PERICENTER = 178.3265
MEAN_ANOMALY   = 181.7638

EPHEMERIS_TYPE = 0
CLASSIFICATION_TYPE = U
NORAD_CAT_ID   = 67437
ELEMENT_SET_NO = 999
REV_AT_EPOCH   = 359
BSTAR          = .19183154E-3
MEAN_MOTION_DOT = .39E-6
MEAN_MOTION_DDOT = 0

CCSDS_OMM_VERS = 2.0
CREATION_DATE  = 
ORIGINATOR     = 

OBJECT_NAME    = HULIANWANG DIGUI-140
OBJECT_ID      = 2026-007D
CENTER_NAME    = EARTH
REF_FRAME      = TEME
TIME_SYSTEM    = UTC
MEAN_ELEMENT_THEORY = SGP/SGP4

EPOCH          = 2026-02-07T13:27:31.540608
MEAN_MOTION    = 13.73892776
ECCENTRICITY   = .00004499
INCLINATION    = 50.0042
RA_OF_ASC_NODE = 195.9376
ARG_OF_PERICENTER = 100.2709
MEAN_ANOMALY   = 259.8233

EPHEMERIS_TYPE = 0
CLASSIFICATION_TYPE = U
NORAD_CAT_ID   = 67438
ELEMENT_SET_NO = 999
REV_AT_EPOCH   = 346
BSTAR          = .18839618E-3
MEAN_MOTION_DOT = .37E-6
MEAN_MOTION_DDOT = 0

CCSDS_OMM_VERS = 2.0
CREATION_DATE  = 
ORIGINATOR     = 

OBJECT_NAME    = HULIANWANG DIGUI-141
OBJECT_ID      = 2026-007E
CENTER_NAME    = EARTH
REF_FRAME      = TEME
TIME_SYSTEM    = UTC
MEAN_ELEMENT_THEORY = SGP/SGP4

EPOCH          = 2026-02-07T13:08:54.624480
MEAN_MOTION    = 13.74661753
ECCENTRICITY   = .00004324
INCLINATION    = 50.0031
RA_OF_ASC_NODE = 195.8681
ARG_OF_PERICENTER = 103.6480
MEAN_ANOMALY   = 256.4460

EPHEMERIS_TYPE = 0
CLASSIFICATION_TYPE = U
NORAD_CAT_ID   = 67439
ELEMENT_SET_NO = 999
REV_AT_EPOCH   = 346
BSTAR          = .16774215E-3
MEAN_MOTION_DOT = .2E-6
MEAN_MOTION_DDOT = 0

CCSDS_OMM_VERS = 2.0
CREATION_DATE  = 
ORIGINATOR     = 

OBJECT_NAME    = HULIANWANG DIGUI-142
OBJECT_ID      = 2026-007F
CENTER_NAME    = EARTH
REF_FRAME      = TEME
TIME_SYSTEM    = UTC
MEAN_ELEMENT_THEORY = SGP/SGP4

EPOCH          = 2026-02-07T09:34:50.876544
MEAN_MOTION    = 13.75320254
ECCENTRICITY   = .00015746
INCLINATION    = 50.0103
RA_OF_ASC_NODE = 196.4425
ARG_OF_PERICENTER = 349.9268
MEAN_ANOMALY   = 10.1593

EPHEMERIS_TYPE = 0
CLASSIFICATION_TYPE = U
NORAD_CAT_ID   = 67440
ELEMENT_SET_NO = 999
REV_AT_EPOCH   = 344
BSTAR          = .11053598E-4
MEAN_MOTION_DOT = -.13E-5
MEAN_MOTION_DDOT = 0

CCSDS_OMM_VERS = 2.0
CREATION_DATE  = 
ORIGINATOR     = 

OBJECT_NAME    = HULIANWANG DIGUI-143
OBJECT_ID      = 2026-007G
CENTER_NAME    = EARTH
REF_FRAME      = TEME
TIME_SYSTEM    = UTC
MEAN_ELEMENT_THEORY = SGP/SGP4

EPOCH          = 2026-02-07T14:43:52.402080
MEAN_MOTION    = 13.75018638
ECCENTRICITY   = .0002397
INCLINATION    = 50.0040
RA_OF_ASC_NODE = 195.5696
ARG_OF_PERICENTER = 180.3309
MEAN_ANOMALY   = 179.7582

EPHEMERIS_TYPE = 0
CLASSIFICATION_TYPE = U
NORAD_CAT_ID   = 67441
ELEMENT_SET_NO = 999
REV_AT_EPOCH   = 347
BSTAR          = .16748979E-3
MEAN_MOTION_DOT = .2E-6
MEAN_MOTION_DDOT = 0

